<?xml version="1.0" encoding="UTF-8"?>
<kml xmlns="http://www.opengis.net/kml/2.2">
  <Document>
    <name>Southern California Embeddable YouTube Cameras</name>
    <description>Generated 2026-07-26T01:16:42.047949+00:00; 28 enabled cameras</description>
    <Style id="camera">
      <IconStyle>
        <scale>1.0</scale>
        <Icon>
          <href>https://maps.google.com/mapfiles/kml/shapes/camera.png</href>
        </Icon>
      </IconStyle>
      <LabelStyle>
        <scale>0.8</scale>
      </LabelStyle>
    </Style>
    <Folder>
      <name>Airport</name>
      <Placemark>
        <name>LAX Airport</name>
        <description><![CDATA[<b>LAX Airport</b><br>
Category: Airport<br>
City: Los Angeles<br>
County: Los Angeles<br>
Operator: LAX Live Camera<br>
Live aviation view near Los Angeles International Airport.<br>
<a href="https://www.youtube.com/watch?v=n4I0d44oBEs">YouTube Live</a>]]></description>
        <styleUrl>#camera</styleUrl>
        <ExtendedData>
          <Data name="id"><value>lax-airport-live</value></Data>
          <Data name="category"><value>Airport</value></Data>
          <Data name="operator"><value>LAX Live Camera</value></Data>
          <Data name="source"><value>Curated Southern California Cameras</value></Data>
        </ExtendedData>
        <Point>
          <coordinates>-118.409933,33.943226,0</coordinates>
        </Point>
      </Placemark>
    </Folder>
    <Folder>
      <name>Aquarium</name>
      <Placemark>
        <name>Monterey Bay Aquarium</name>
        <description><![CDATA[<b>Monterey Bay Aquarium</b><br>
Category: Aquarium<br>
City: Monterey<br>
County: Monterey<br>
Operator: Monterey Bay Aquarium<br>
Live view from the Monterey Bay Aquarium.<br>
<a href="https://www.montereybayaquarium.org/">Camera Page</a><br>
<a href="https://www.youtube.com/watch?v=fVa6-zCBR7A">YouTube Live</a>]]></description>
        <styleUrl>#camera</styleUrl>
        <ExtendedData>
          <Data name="id"><value>monterey-bay-aquarium-live</value></Data>
          <Data name="category"><value>Aquarium</value></Data>
          <Data name="operator"><value>Monterey Bay Aquarium</value></Data>
          <Data name="source"><value>Curated Southern California Cameras</value></Data>
        </ExtendedData>
        <Point>
          <coordinates>-121.904529,36.618262,0</coordinates>
        </Point>
      </Placemark>
    </Folder>
    <Folder>
      <name>Beach</name>
      <Placemark>
        <name>Hermosa Beach Strand</name>
        <description><![CDATA[<b>Hermosa Beach Strand</b><br>
Category: Beach<br>
City: Hermosa Beach<br>
County: Los Angeles<br>
Operator: Teleport<br>
Welcome to the Good Stuff Hermosa Beach Strand Cam! We stream 24 hours a day, 7 days a week. See the beautiful, and world-famous Strand, take in the sun, or people watch!<br>
<a href="https://hermosabeach.com/">Camera Page</a><br>
<a href="https://www.youtube.com/watch?v=Jwna-J3L0NM">YouTube Live</a><br>
Notes: Use is subject to the operator&#x27;s published terms.]]></description>
        <styleUrl>#camera</styleUrl>
        <ExtendedData>
          <Data name="id"><value>hermosastrand</value></Data>
          <Data name="category"><value>Beach</value></Data>
          <Data name="operator"><value>Teleport</value></Data>
          <Data name="source"><value>Curated Southern California Cameras</value></Data>
        </ExtendedData>
        <Point>
          <coordinates>-118.404334,33.862601,0</coordinates>
        </Point>
      </Placemark>
      <Placemark>
        <name>Venice Beach</name>
        <description><![CDATA[<b>Venice Beach</b><br>
Category: Beach<br>
City: Venice Beach<br>
County: Los Angeles<br>
Operator: Teleport<br>
We would like to thank the Venice V Hotel in Los Angeles for gifting us this amazing opportunity to broadcast the eagle eye view of the amazing Venice Beach live 24/7.<br>
<a href="https://venicehotel.com/">Camera Page</a><br>
<a href="https://www.youtube.com/watch?v=EO_1LWqsCNE">YouTube Live</a><br>
Notes: Use is subject to the operator&#x27;s published terms.]]></description>
        <styleUrl>#camera</styleUrl>
        <ExtendedData>
          <Data name="id"><value>venicebeach</value></Data>
          <Data name="category"><value>Beach</value></Data>
          <Data name="operator"><value>Teleport</value></Data>
          <Data name="source"><value>Curated Southern California Cameras</value></Data>
        </ExtendedData>
        <Point>
          <coordinates>-118.477453,33.988678,0</coordinates>
        </Point>
      </Placemark>
      <Placemark>
        <name>Huntington Beach Pier — Live</name>
        <description><![CDATA[<b>Huntington Beach Pier — Live</b><br>
Category: Beach<br>
City: Huntington Beach<br>
County: Orange<br>
Operator: City of Huntington Beach<br>
Official live view from Huntington Beach Pier.<br>
<a href="https://www.youtube.com/watch?v=mhQjsLBfOoY">Camera Page</a><br>
<a href="https://www.youtube.com/watch?v=mhQjsLBfOoY">YouTube Live</a>]]></description>
        <styleUrl>#camera</styleUrl>
        <ExtendedData>
          <Data name="id"><value>huntington-beach-pier-live</value></Data>
          <Data name="category"><value>Beach</value></Data>
          <Data name="operator"><value>City of Huntington Beach</value></Data>
          <Data name="source"><value>Curated Southern California Cameras</value></Data>
        </ExtendedData>
        <Point>
          <coordinates>-118.003800,33.655300,0</coordinates>
        </Point>
      </Placemark>
      <Placemark>
        <name>Oceanside Pier</name>
        <description><![CDATA[<b>Oceanside Pier</b><br>
Category: Beach<br>
City: Oceanside<br>
County: San Diego<br>
Operator: San Diego Webcam<br>
Perched high atop The Rooftop Bar on the sixth floor of the Mission Pacific Beach Resort in Oceanside, California—right at the base of the historic Oceanside Pier—this west-facing webcam delivers breathtaking panoramic views of the Pacific Ocean.<br>
<a href="https://www.rooftopbaroceanside.com/cocktails-bites/">Camera Page</a><br>
<a href="https://www.youtube.com/watch?v=OYqo4dqYjh0">YouTube Live</a><br>
Notes: Use is subject to the operator&#x27;s published terms.]]></description>
        <styleUrl>#camera</styleUrl>
        <ExtendedData>
          <Data name="id"><value>oceanside</value></Data>
          <Data name="category"><value>Beach</value></Data>
          <Data name="operator"><value>San Diego Webcam</value></Data>
          <Data name="source"><value>Curated Southern California Cameras</value></Data>
        </ExtendedData>
        <Point>
          <coordinates>-117.385361,33.194570,0</coordinates>
        </Point>
      </Placemark>
    </Folder>
    <Folder>
      <name>City</name>
      <Placemark>
        <name>Morgan Hill</name>
        <description><![CDATA[<b>Morgan Hill</b><br>
Category: City<br>
City: Morgan Hill<br>
County: Santa Clara<br>
Operator: Morgan Hill Live Camera<br>
Live city view from Morgan Hill.<br>
<a href="https://www.youtube.com/watch?v=Ul6wlBwXz9Y">YouTube Live</a>]]></description>
        <styleUrl>#camera</styleUrl>
        <ExtendedData>
          <Data name="id"><value>morgan-hill-live</value></Data>
          <Data name="category"><value>City</value></Data>
          <Data name="operator"><value>Morgan Hill Live Camera</value></Data>
          <Data name="source"><value>Curated Southern California Cameras</value></Data>
        </ExtendedData>
        <Point>
          <coordinates>-121.723051,37.129236,0</coordinates>
        </Point>
      </Placemark>
      <Placemark>
        <name>Morgan Hill — East Side</name>
        <description><![CDATA[<b>Morgan Hill — East Side</b><br>
Category: City<br>
City: Morgan Hill<br>
County: Santa Clara<br>
Operator: Morgan Hill Live Camera<br>
Second live city view from a different part of Morgan Hill.<br>
<a href="https://www.youtube.com/watch?v=KES0RUIXg8s">YouTube Live</a><br>
Notes: Separate Morgan Hill camera location; retained alongside the existing Morgan Hill feed.]]></description>
        <styleUrl>#camera</styleUrl>
        <ExtendedData>
          <Data name="id"><value>morgan-hill-east-live</value></Data>
          <Data name="category"><value>City</value></Data>
          <Data name="operator"><value>Morgan Hill Live Camera</value></Data>
          <Data name="source"><value>Curated Southern California Cameras</value></Data>
        </ExtendedData>
        <Point>
          <coordinates>-121.654400,37.130500,0</coordinates>
        </Point>
      </Placemark>
    </Folder>
    <Folder>
      <name>Coast</name>
      <Placemark>
        <name>Mori Point</name>
        <description><![CDATA[<b>Mori Point</b><br>
Category: Coast<br>
City: Pacifica<br>
County: San Mateo<br>
Operator: Golden Gate National Parks Conservancy<br>
Live coastal view from Mori Point.<br>
<a href="https://www.parksconservancy.org/parks/mori-point">Camera Page</a><br>
<a href="https://www.youtube.com/watch?v=UYu-TjvAVFs">YouTube Live</a>]]></description>
        <styleUrl>#camera</styleUrl>
        <ExtendedData>
          <Data name="id"><value>mori-point-live</value></Data>
          <Data name="category"><value>Coast</value></Data>
          <Data name="operator"><value>Golden Gate National Parks Conservancy</value></Data>
          <Data name="source"><value>Curated Southern California Cameras</value></Data>
        </ExtendedData>
        <Point>
          <coordinates>-122.503308,37.620021,0</coordinates>
        </Point>
      </Placemark>
    </Folder>
    <Folder>
      <name>Harbor</name>
      <Placemark>
        <name>Harbor Island</name>
        <description><![CDATA[<b>Harbor Island</b><br>
Category: Harbor<br>
City: San Diego<br>
County: San Diego<br>
Operator: Port of San Diego<br>
Live harbor view from Harbor Island.<br>
<a href="https://www.portofsandiego.org/">Camera Page</a><br>
<a href="https://www.youtube.com/watch?v=iaBfYxbmwXA">YouTube Live</a>]]></description>
        <styleUrl>#camera</styleUrl>
        <ExtendedData>
          <Data name="id"><value>harbor-island-san-diego-live</value></Data>
          <Data name="category"><value>Harbor</value></Data>
          <Data name="operator"><value>Port of San Diego</value></Data>
          <Data name="source"><value>Curated Southern California Cameras</value></Data>
        </ExtendedData>
        <Point>
          <coordinates>-117.211574,32.725337,0</coordinates>
        </Point>
      </Placemark>
      <Placemark>
        <name>Mersea Restaurant</name>
        <description><![CDATA[<b>Mersea Restaurant</b><br>
Category: Harbor<br>
City: San Francisco<br>
County: San Francisco<br>
Operator: Mersea Restaurant<br>
Live waterfront view from Treasure Island.<br>
<a href="https://mersea.restaurant/">Camera Page</a><br>
<a href="https://www.youtube.com/watch?v=BSWhGNXxT9A">YouTube Live</a>]]></description>
        <styleUrl>#camera</styleUrl>
        <ExtendedData>
          <Data name="id"><value>mersea-san-francisco-live</value></Data>
          <Data name="category"><value>Harbor</value></Data>
          <Data name="operator"><value>Mersea Restaurant</value></Data>
          <Data name="source"><value>Curated Southern California Cameras</value></Data>
        </ExtendedData>
        <Point>
          <coordinates>-122.378170,37.822505,0</coordinates>
        </Point>
      </Placemark>
    </Folder>
    <Folder>
      <name>Mountain</name>
      <Placemark>
        <name>Mt. Hood Outfitters</name>
        <description><![CDATA[<b>Mt. Hood Outfitters</b><br>
Category: Mountain<br>
City: Government Camp<br>
County: Clackamas<br>
Operator: Mt. Hood Outfitters<br>
Live mountain view near Mt. Hood, Oregon.<br>
<a href="https://mthoodoutfitters.com/">Camera Page</a><br>
<a href="https://www.youtube.com/watch?v=-CXU5UhysBE">YouTube Live</a>]]></description>
        <styleUrl>#camera</styleUrl>
        <ExtendedData>
          <Data name="id"><value>mt-hood-outfitters-live</value></Data>
          <Data name="category"><value>Mountain</value></Data>
          <Data name="operator"><value>Mt. Hood Outfitters</value></Data>
          <Data name="source"><value>Curated Southern California Cameras</value></Data>
        </ExtendedData>
        <Point>
          <coordinates>-121.756838,45.304085,0</coordinates>
        </Point>
      </Placemark>
      <Placemark>
        <name>Bear Mountain — Base Cam</name>
        <description><![CDATA[<b>Bear Mountain — Base Cam</b><br>
Category: Mountain<br>
City: Big Bear Lake<br>
County: San Bernardino<br>
Operator: Big Bear Mountain Resort<br>
Live camera overlooking the Bear Mountain base area.<br>
<a href="https://www.bigbearmountainresort.com/webcams/bear-mountain">Camera Page</a><br>
<a href="https://www.youtube.com/watch?v=f_OUEF4csuo">YouTube Live</a>]]></description>
        <styleUrl>#camera</styleUrl>
        <ExtendedData>
          <Data name="id"><value>bear-mountain-base-live</value></Data>
          <Data name="category"><value>Mountain</value></Data>
          <Data name="operator"><value>Big Bear Mountain Resort</value></Data>
          <Data name="source"><value>Curated Southern California Cameras</value></Data>
        </ExtendedData>
        <Point>
          <coordinates>-116.861300,34.228700,0</coordinates>
        </Point>
      </Placemark>
      <Placemark>
        <name>Bear Mountain — Westridge Cam</name>
        <description><![CDATA[<b>Bear Mountain — Westridge Cam</b><br>
Category: Mountain<br>
City: Big Bear Lake<br>
County: San Bernardino<br>
Operator: Big Bear Mountain Resort<br>
Live Westridge terrain camera at Bear Mountain.<br>
<a href="https://www.bigbearmountainresort.com/webcams/bear-mountain">Camera Page</a><br>
<a href="https://www.youtube.com/watch?v=s7NTCLxH5c0">YouTube Live</a>]]></description>
        <styleUrl>#camera</styleUrl>
        <ExtendedData>
          <Data name="id"><value>bear-mountain-westridge-live</value></Data>
          <Data name="category"><value>Mountain</value></Data>
          <Data name="operator"><value>Big Bear Mountain Resort</value></Data>
          <Data name="source"><value>Curated Southern California Cameras</value></Data>
        </ExtendedData>
        <Point>
          <coordinates>-116.855800,34.222800,0</coordinates>
        </Point>
      </Placemark>
      <Placemark>
        <name>Goldmine Mountain — Live</name>
        <description><![CDATA[<b>Goldmine Mountain — Live</b><br>
Category: Mountain<br>
City: Big Bear Lake<br>
County: San Bernardino<br>
Operator: SoCalMountains<br>
Live camera from Goldmine Mountain above Bear Mountain.<br>
<a href="https://www.bensweather.com/wxwebcams.php">Camera Page</a><br>
<a href="https://www.youtube.com/watch?v=IRT4RgQPwmY">YouTube Live</a><br>
Notes: Listed through the BensWeather webcam page.]]></description>
        <styleUrl>#camera</styleUrl>
        <ExtendedData>
          <Data name="id"><value>goldmine-mountain-live</value></Data>
          <Data name="category"><value>Mountain</value></Data>
          <Data name="operator"><value>SoCalMountains</value></Data>
          <Data name="source"><value>Curated Southern California Cameras</value></Data>
        </ExtendedData>
        <Point>
          <coordinates>-116.857900,34.220800,0</coordinates>
        </Point>
      </Placemark>
      <Placemark>
        <name>San Gorgonio Wilderness — Live</name>
        <description><![CDATA[<b>San Gorgonio Wilderness — Live</b><br>
Category: Mountain<br>
City: Big Bear Lake<br>
County: San Bernardino<br>
Operator: BensWeather<br>
Live view of the San Gorgonio Wilderness and San Bernardino Mountains.<br>
<a href="https://www.bensweather.com/wxwebcams.php">Camera Page</a><br>
<a href="https://www.youtube.com/watch?v=VXMe-WsgZFs">YouTube Live</a>]]></description>
        <styleUrl>#camera</styleUrl>
        <ExtendedData>
          <Data name="id"><value>san-gorgonio-wilderness-live</value></Data>
          <Data name="category"><value>Mountain</value></Data>
          <Data name="operator"><value>BensWeather</value></Data>
          <Data name="source"><value>Curated Southern California Cameras</value></Data>
        </ExtendedData>
        <Point>
          <coordinates>-116.824900,34.099200,0</coordinates>
        </Point>
      </Placemark>
      <Placemark>
        <name>Snow Summit — Beginner Area Cam</name>
        <description><![CDATA[<b>Snow Summit — Beginner Area Cam</b><br>
Category: Mountain<br>
City: Big Bear Lake<br>
County: San Bernardino<br>
Operator: Big Bear Mountain Resort<br>
Live camera overlooking the Snow Summit beginner area.<br>
<a href="https://www.bigbearmountainresort.com/webcams/snow-summit">Camera Page</a><br>
<a href="https://www.youtube.com/watch?v=Kn4IAs67hNo">YouTube Live</a>]]></description>
        <styleUrl>#camera</styleUrl>
        <ExtendedData>
          <Data name="id"><value>snow-summit-beginner-area-live</value></Data>
          <Data name="category"><value>Mountain</value></Data>
          <Data name="operator"><value>Big Bear Mountain Resort</value></Data>
          <Data name="source"><value>Curated Southern California Cameras</value></Data>
        </ExtendedData>
        <Point>
          <coordinates>-116.890100,34.237000,0</coordinates>
        </Point>
      </Placemark>
      <Placemark>
        <name>Snow Summit — Miracle Mile Cam</name>
        <description><![CDATA[<b>Snow Summit — Miracle Mile Cam</b><br>
Category: Mountain<br>
City: Big Bear Lake<br>
County: San Bernardino<br>
Operator: Big Bear Mountain Resort<br>
Live camera overlooking Miracle Mile at Snow Summit.<br>
<a href="https://www.bigbearmountainresort.com/webcams/snow-summit">Camera Page</a><br>
<a href="https://www.youtube.com/watch?v=1sa8cuSm7dk">YouTube Live</a>]]></description>
        <styleUrl>#camera</styleUrl>
        <ExtendedData>
          <Data name="id"><value>snow-summit-miracle-mile-live</value></Data>
          <Data name="category"><value>Mountain</value></Data>
          <Data name="operator"><value>Big Bear Mountain Resort</value></Data>
          <Data name="source"><value>Curated Southern California Cameras</value></Data>
        </ExtendedData>
        <Point>
          <coordinates>-116.887300,34.230200,0</coordinates>
        </Point>
      </Placemark>
      <Placemark>
        <name>Snow Summit — Slopeside Cam</name>
        <description><![CDATA[<b>Snow Summit — Slopeside Cam</b><br>
Category: Mountain<br>
City: Big Bear Lake<br>
County: San Bernardino<br>
Operator: Big Bear Mountain Resort<br>
Live slopeside camera at Snow Summit.<br>
<a href="https://www.bigbearmountainresort.com/webcams/snow-summit">Camera Page</a><br>
<a href="https://www.youtube.com/watch?v=SOo3NBmvJQI">YouTube Live</a>]]></description>
        <styleUrl>#camera</styleUrl>
        <ExtendedData>
          <Data name="id"><value>snow-summit-slopeside-live</value></Data>
          <Data name="category"><value>Mountain</value></Data>
          <Data name="operator"><value>Big Bear Mountain Resort</value></Data>
          <Data name="source"><value>Curated Southern California Cameras</value></Data>
        </ExtendedData>
        <Point>
          <coordinates>-116.889000,34.236000,0</coordinates>
        </Point>
      </Placemark>
      <Placemark>
        <name>Snow Valley — Base Area Cam</name>
        <description><![CDATA[<b>Snow Valley — Base Area Cam</b><br>
Category: Mountain<br>
City: Running Springs<br>
County: San Bernardino<br>
Operator: Big Bear Mountain Resort<br>
Live view of the Snow Valley base area.<br>
<a href="https://www.bigbearmountainresort.com/webcams/snow-valley">Camera Page</a><br>
<a href="https://www.youtube.com/watch?v=RBYyWnu8nhM">YouTube Live</a>]]></description>
        <styleUrl>#camera</styleUrl>
        <ExtendedData>
          <Data name="id"><value>snow-valley-base-live</value></Data>
          <Data name="category"><value>Mountain</value></Data>
          <Data name="operator"><value>Big Bear Mountain Resort</value></Data>
          <Data name="source"><value>Curated Southern California Cameras</value></Data>
        </ExtendedData>
        <Point>
          <coordinates>-117.036400,34.224800,0</coordinates>
        </Point>
      </Placemark>
      <Placemark>
        <name>Snow Valley — Slide Peak Cam</name>
        <description><![CDATA[<b>Snow Valley — Slide Peak Cam</b><br>
Category: Mountain<br>
City: Running Springs<br>
County: San Bernardino<br>
Operator: Big Bear Mountain Resort<br>
Live camera from Slide Peak at Snow Valley.<br>
<a href="https://www.bigbearmountainresort.com/webcams/snow-valley">Camera Page</a><br>
<a href="https://www.youtube.com/watch?v=qPqufIWZAd4">YouTube Live</a>]]></description>
        <styleUrl>#camera</styleUrl>
        <ExtendedData>
          <Data name="id"><value>snow-valley-slide-peak-live</value></Data>
          <Data name="category"><value>Mountain</value></Data>
          <Data name="operator"><value>Big Bear Mountain Resort</value></Data>
          <Data name="source"><value>Curated Southern California Cameras</value></Data>
        </ExtendedData>
        <Point>
          <coordinates>-117.027500,34.216900,0</coordinates>
        </Point>
      </Placemark>
    </Folder>
    <Folder>
      <name>National Park</name>
      <Placemark>
        <name>Yosemite Falls</name>
        <description><![CDATA[<b>Yosemite Falls</b><br>
Category: National Park<br>
City: Yosemite Valley<br>
County: Mariposa<br>
Operator: Yosemite Conservancy<br>
Live view of Upper Yosemite Fall in Yosemite National Park.<br>
<a href="https://www.nps.gov/yose/learn/photosmultimedia/webcams.htm">Camera Page</a><br>
<a href="https://www.youtube.com/watch?v=vk62QErdX4Q">YouTube Live</a>]]></description>
        <styleUrl>#camera</styleUrl>
        <ExtendedData>
          <Data name="id"><value>yosemite-falls-live</value></Data>
          <Data name="category"><value>National Park</value></Data>
          <Data name="operator"><value>Yosemite Conservancy</value></Data>
          <Data name="source"><value>Curated Southern California Cameras</value></Data>
        </ExtendedData>
        <Point>
          <coordinates>-119.596700,37.756300,0</coordinates>
        </Point>
      </Placemark>
    </Folder>
    <Folder>
      <name>Railroad</name>
      <Placemark>
        <name>Union Pacific Railroad — Redding</name>
        <description><![CDATA[<b>Union Pacific Railroad — Redding</b><br>
Category: Railroad<br>
City: Redding<br>
County: Shasta<br>
Operator: Redding Railroad Live Camera<br>
Live railroad view near the Union Pacific line in Redding.<br>
<a href="https://www.youtube.com/watch?v=fKakDFoyBeM">YouTube Live</a>]]></description>
        <styleUrl>#camera</styleUrl>
        <ExtendedData>
          <Data name="id"><value>union-pacific-redding-live</value></Data>
          <Data name="category"><value>Railroad</value></Data>
          <Data name="operator"><value>Redding Railroad Live Camera</value></Data>
          <Data name="source"><value>Curated Southern California Cameras</value></Data>
        </ExtendedData>
        <Point>
          <coordinates>-122.402891,40.583627,0</coordinates>
        </Point>
      </Placemark>
    </Folder>
    <Folder>
      <name>Tourist</name>
      <Placemark>
        <name>Las Vegas Strip</name>
        <description><![CDATA[<b>Las Vegas Strip</b><br>
Category: Tourist<br>
City: Las Vegas<br>
County: Clark<br>
Operator: LV Strip Cam<br>
Encore Hotel Las Vegas Strip Live feed.<br>
<a href="https://www.wynnlasvegas.com/rooms-and-suites/encore-rooms/encore-deluxe-resort">Camera Page</a><br>
<a href="https://www.youtube.com/watch?v=nylxuqRtOPk">YouTube Live</a><br>
Notes: Use is subject to the operator&#x27;s published terms.]]></description>
        <styleUrl>#camera</styleUrl>
        <ExtendedData>
          <Data name="id"><value>lasvegas</value></Data>
          <Data name="category"><value>Tourist</value></Data>
          <Data name="operator"><value>LV Strip Cam</value></Data>
          <Data name="source"><value>Curated Southern California Cameras</value></Data>
        </ExtendedData>
        <Point>
          <coordinates>-115.166792,36.129444,0</coordinates>
        </Point>
      </Placemark>
      <Placemark>
        <name>Hollywood Boulevard</name>
        <description><![CDATA[<b>Hollywood Boulevard</b><br>
Category: Tourist<br>
City: Hollywood<br>
County: Los Angeles<br>
Operator: LA Times<br>
The camera is located on the 3rd floor of the El Capitan Theater, facing the Dolby Theatre and TCL Chinese Theatre on the Hollywood Walk of Fame.<br>
<a href="https://www.latimes.com/">Camera Page</a><br>
<a href="https://www.youtube.com/watch?v=OYqo4dqYjh0">YouTube Live</a><br>
Notes: Use is subject to the operator&#x27;s published terms.]]></description>
        <styleUrl>#camera</styleUrl>
        <ExtendedData>
          <Data name="id"><value>hollywood</value></Data>
          <Data name="category"><value>Tourist</value></Data>
          <Data name="operator"><value>LA Times</value></Data>
          <Data name="source"><value>Curated Southern California Cameras</value></Data>
        </ExtendedData>
        <Point>
          <coordinates>-118.342537,34.101407,0</coordinates>
        </Point>
      </Placemark>
    </Folder>
    <Folder>
      <name>Wildlife</name>
      <Placemark>
        <name>Umpqua Fish Bridge</name>
        <description><![CDATA[<b>Umpqua Fish Bridge</b><br>
Category: Wildlife<br>
City: Roseburg<br>
County: Douglas<br>
Operator: Umpqua Fish<br>
Live view of the fish passage and bridge area near Roseburg.<br>
<a href="https://www.umpquafish.com/">Camera Page</a><br>
<a href="https://www.youtube.com/watch?v=80XC0Ebt9tE">YouTube Live</a>]]></description>
        <styleUrl>#camera</styleUrl>
        <ExtendedData>
          <Data name="id"><value>umpqua-fish-bridge-live</value></Data>
          <Data name="category"><value>Wildlife</value></Data>
          <Data name="operator"><value>Umpqua Fish</value></Data>
          <Data name="source"><value>Curated Southern California Cameras</value></Data>
        </ExtendedData>
        <Point>
          <coordinates>-123.355881,43.282776,0</coordinates>
        </Point>
      </Placemark>
      <Placemark>
        <name>Big Bear Bald Eagle Nest — Cam 1</name>
        <description><![CDATA[<b>Big Bear Bald Eagle Nest — Cam 1</b><br>
Category: Wildlife<br>
City: Fawnskin<br>
County: San Bernardino<br>
Operator: Friends of Big Bear Valley<br>
Live bald eagle nest camera in Big Bear Valley.<br>
<a href="https://friendsofbigbearvalley.org/livestream/">Camera Page</a><br>
<a href="https://www.youtube.com/watch?v=B4-L2nfGcuE">YouTube Live</a><br>
Notes: Use is subject to the operator&#x27;s published terms.]]></description>
        <styleUrl>#camera</styleUrl>
        <ExtendedData>
          <Data name="id"><value>big-bear-bald-eagle-cam-1</value></Data>
          <Data name="category"><value>Wildlife</value></Data>
          <Data name="operator"><value>Friends of Big Bear Valley</value></Data>
          <Data name="source"><value>Curated Southern California Cameras</value></Data>
        </ExtendedData>
        <Point>
          <coordinates>-116.944000,34.275000,0</coordinates>
        </Point>
      </Placemark>
      <Placemark>
        <name>Big Bear Bald Eagle Nest — Cam 2</name>
        <description><![CDATA[<b>Big Bear Bald Eagle Nest — Cam 2</b><br>
Category: Wildlife<br>
City: Fawnskin<br>
County: San Bernardino<br>
Operator: Friends of Big Bear Valley<br>
Second live bald eagle nest view in Big Bear Valley.<br>
<a href="https://friendsofbigbearvalley.org/livestream/">Camera Page</a><br>
<a href="https://www.youtube.com/watch?v=tz_oiJvzNV4">YouTube Live</a><br>
Notes: Use is subject to the operator&#x27;s published terms.]]></description>
        <styleUrl>#camera</styleUrl>
        <ExtendedData>
          <Data name="id"><value>big-bear-bald-eagle-cam-2</value></Data>
          <Data name="category"><value>Wildlife</value></Data>
          <Data name="operator"><value>Friends of Big Bear Valley</value></Data>
          <Data name="source"><value>Curated Southern California Cameras</value></Data>
        </ExtendedData>
        <Point>
          <coordinates>-116.943800,34.275100,0</coordinates>
        </Point>
      </Placemark>
    </Folder>
  </Document>
</kml>
