<?xml version="1.0" encoding="UTF-8"?>
<kml xmlns="http://www.opengis.net/kml/2.2">

<Document>

  <name>NIFC Current Fire Perimeters</name>

  <NetworkLink>

    <name>NIFC Current Fire Perimeters</name>

    <refreshVisibility>1</refreshVisibility>

    <flyToView>0</flyToView>

    <Link>

      <href>https://tim.workisboring.com/atak/data/kml/nifc-current-perimeters.kml</href>

      <refreshMode>
        onInterval
      </refreshMode>

      <refreshInterval>
        900
      </refreshInterval>

      <viewRefreshMode>
        never
      </viewRefreshMode>

    </Link>

  </NetworkLink>

</Document>

</kml>
