<?xml version='1.0' encoding='utf-8'?>
<kml xmlns="http://www.opengis.net/kml/2.2"><Document><name>FOX / Weather Vision Southern California Cameras</name><Style id="camera-style"><IconStyle><scale>1.1</scale><Icon><href>https://maps.google.com/mapfiles/kml/shapes/camera.png</href></Icon></IconStyle></Style><Folder><name>FOX / Weather Vision Cameras</name><Placemark><name>Catalina Island – Avalon</name><styleUrl>#camera-style</styleUrl><description>&lt;b&gt;Catalina Island – Avalon&lt;/b&gt;&lt;br&gt;Type: Live Island Webcam&lt;br&gt;Source: FOX 10 Phoenix / Weather Vision&lt;br&gt;County: Los Angeles&lt;br&gt;&lt;a href="https://www.fox10phoenix.com/webcams-catalina"&gt;Open live camera page&lt;/a&gt;&lt;br&gt;Playback is provided on the official FOX page.</description><Point><coordinates>-118.3282,33.3428,0</coordinates></Point></Placemark><Placemark><name>Los Angeles – LAX Airport</name><styleUrl>#camera-style</styleUrl><description>&lt;b&gt;Los Angeles – LAX Airport&lt;/b&gt;&lt;br&gt;Type: Live Airport Webcam&lt;br&gt;Source: FOX 10 Phoenix / Weather Vision&lt;br&gt;County: Los Angeles&lt;br&gt;&lt;a href="https://www.fox10phoenix.com/webcams-los-angeles"&gt;Open live camera page&lt;/a&gt;&lt;br&gt;Playback is provided on the official FOX page.</description><Point><coordinates>-118.4085,33.9416,0</coordinates></Point></Placemark><Placemark><name>Ontario International Airport</name><styleUrl>#camera-style</styleUrl><description>&lt;b&gt;Ontario International Airport&lt;/b&gt;&lt;br&gt;Type: Live Airport Webcam&lt;br&gt;Source: FOX 10 Phoenix / Weather Vision&lt;br&gt;County: San Bernardino&lt;br&gt;&lt;a href="https://www.fox10phoenix.com/webcams-ontario"&gt;Open live camera page&lt;/a&gt;&lt;br&gt;Playback is provided on the official FOX page.</description><Point><coordinates>-117.6012,34.056,0</coordinates></Point></Placemark><Placemark><name>Santa Monica Beach</name><styleUrl>#camera-style</styleUrl><description>&lt;b&gt;Santa Monica Beach&lt;/b&gt;&lt;br&gt;Type: Live Beach Webcam&lt;br&gt;Source: FOX 10 Phoenix / Weather Vision&lt;br&gt;County: Los Angeles&lt;br&gt;&lt;a href="https://www.fox10phoenix.com/webcams-santa-monica-beach"&gt;Open live camera page&lt;/a&gt;&lt;br&gt;Playback is provided on the official FOX page.</description><Point><coordinates>-118.4973,34.0094,0</coordinates></Point></Placemark></Folder></Document></kml>